YAOGAN-47               
1 66988U 25289A   25354.09842060  .00002520  00000+0  10946-3 0  9992
2 66988  97.5265  59.2376 0000646  91.4531 268.6780 15.23243112  1668
CZ-4B R/B               
1 66989U 25289B   25357.17352884  .00127908  69955-5  60192-3 0  9991
2 66989  97.5240  63.2833 0141231 323.3908  35.7763 15.69708825  2208
TJS-22                  
1 66990U 25290A   25356.35592728  .00000017  00000+0  00000+0 0  9996
2 66990   1.9643 285.0317 0003433 342.7028  18.0138  1.00271075   251
CZ-3B R/B               
1 66991U 25290B   25349.72468800  .00057911 -20514-6  75879-3 0  9998
2 66991  28.4636 300.4666 7240884 182.7002 168.6250  2.38388611   165
2025-292A               
1 66993U 25292A   25357.11559234  .00004193  00000+0  30270-3 0  9996
2 66993  97.6507  69.5659 0014329 234.5390 125.4499 15.04567458  1958
2025-292B               
1 66994U 25292B   25357.11521229  .00005084  00000+0  36560-3 0  9998
2 66994  97.6516  69.5677 0014114 234.7244 125.2662 15.04613791  1953
2025-292C               
1 66995U 25292C   25357.11507231  .00005743  00000+0  41202-3 0  9997
2 66995  97.6506  69.5665 0014422 235.1110 124.8761 15.04643416  1951
2025-292D               
1 66996U 25292D   25357.11473130  .00003832  00000+0  27641-3 0  9996
2 66996  97.6501  69.5661 0013546 237.6964 122.2951 15.04662100  1957
2025-292E               
1 66997U 25292E   25357.11402198  .00004367  00000+0  31359-3 0  9998
2 66997  97.6522  69.5703 0013935 238.6473 121.3390 15.04750572  1943
2025-292F               
1 66998U 25292F   25357.11263779  .00005785  00000+0  41179-3 0  9995
2 66998  97.6540  69.5750 0015062 239.6191 120.3546 15.04926380  1952
2025-292G               
1 66999U 25292G   25357.11209282  .00005864  00000+0  41671-3 0  9990
2 66999  97.6548  69.5771 0014593 241.6834 118.2920 15.04990026  1959
2025-292H               
1 67000U 25292H   25357.11201447  .00007470  00000+0  52917-3 0  9999
2 67000  97.6562  69.5791 0014556 241.4286 118.5475 15.05014659  1823
