CCSDS_OMM_VERS = 2.0
CREATION_DATE  = 
ORIGINATOR     = 

OBJECT_NAME    = YAOGAN-47
OBJECT_ID      = 2025-289A
CENTER_NAME    = EARTH
REF_FRAME      = TEME
TIME_SYSTEM    = UTC
MEAN_ELEMENT_THEORY = SGP/SGP4

EPOCH          = 2025-12-20T02:21:43.539840
MEAN_MOTION    = 15.23243112
ECCENTRICITY   = .00006467
INCLINATION    = 97.5265
RA_OF_ASC_NODE = 59.2376
ARG_OF_PERICENTER = 91.4531
MEAN_ANOMALY   = 268.6780

EPHEMERIS_TYPE = 0
CLASSIFICATION_TYPE = U
NORAD_CAT_ID   = 66988
ELEMENT_SET_NO = 999
REV_AT_EPOCH   = 166
BSTAR          = .10945697E-3
MEAN_MOTION_DOT = .252E-4
MEAN_MOTION_DDOT = 0

CCSDS_OMM_VERS = 2.0
CREATION_DATE  = 
ORIGINATOR     = 

OBJECT_NAME    = CZ-4B R/B
OBJECT_ID      = 2025-289B
CENTER_NAME    = EARTH
REF_FRAME      = TEME
TIME_SYSTEM    = UTC
MEAN_ELEMENT_THEORY = SGP/SGP4

EPOCH          = 2025-12-23T04:09:52.891776
MEAN_MOTION    = 15.69708825
ECCENTRICITY   = .0141231
INCLINATION    = 97.5240
RA_OF_ASC_NODE = 63.2833
ARG_OF_PERICENTER = 323.3908
MEAN_ANOMALY   = 35.7763

EPHEMERIS_TYPE = 0
CLASSIFICATION_TYPE = U
NORAD_CAT_ID   = 66989
ELEMENT_SET_NO = 999
REV_AT_EPOCH   = 220
BSTAR          = .60192E-3
MEAN_MOTION_DOT = .127908E-2
MEAN_MOTION_DDOT = .69955E-5

CCSDS_OMM_VERS = 2.0
CREATION_DATE  = 
ORIGINATOR     = 

OBJECT_NAME    = TJS-22
OBJECT_ID      = 2025-290A
CENTER_NAME    = EARTH
REF_FRAME      = TEME
TIME_SYSTEM    = UTC
MEAN_ELEMENT_THEORY = SGP/SGP4

EPOCH          = 2025-12-22T08:32:32.116992
MEAN_MOTION    = 1.00271075
ECCENTRICITY   = .0003433
INCLINATION    = 1.9643
RA_OF_ASC_NODE = 285.0317
ARG_OF_PERICENTER = 342.7028
MEAN_ANOMALY   = 18.0138

EPHEMERIS_TYPE = 0
CLASSIFICATION_TYPE = U
NORAD_CAT_ID   = 66990
ELEMENT_SET_NO = 999
REV_AT_EPOCH   = 25
BSTAR          = 0
MEAN_MOTION_DOT = .17E-6
MEAN_MOTION_DDOT = 0

CCSDS_OMM_VERS = 2.0
CREATION_DATE  = 
ORIGINATOR     = 

OBJECT_NAME    = CZ-3B R/B
OBJECT_ID      = 2025-290B
CENTER_NAME    = EARTH
REF_FRAME      = TEME
TIME_SYSTEM    = UTC
MEAN_ELEMENT_THEORY = SGP/SGP4

EPOCH          = 2025-12-15T17:23:33.043200
MEAN_MOTION    = 2.38388611
ECCENTRICITY   = .7240884
INCLINATION    = 28.4636
RA_OF_ASC_NODE = 300.4666
ARG_OF_PERICENTER = 182.7002
MEAN_ANOMALY   = 168.6250

EPHEMERIS_TYPE = 0
CLASSIFICATION_TYPE = U
NORAD_CAT_ID   = 66991
ELEMENT_SET_NO = 999
REV_AT_EPOCH   = 16
BSTAR          = .75879E-3
MEAN_MOTION_DOT = .57911E-3
MEAN_MOTION_DDOT = -.20514E-6

CCSDS_OMM_VERS = 2.0
CREATION_DATE  = 
ORIGINATOR     = 

OBJECT_NAME    = 2025-292A
OBJECT_ID      = 2025-292A
CENTER_NAME    = EARTH
REF_FRAME      = TEME
TIME_SYSTEM    = UTC
MEAN_ELEMENT_THEORY = SGP/SGP4

EPOCH          = 2025-12-23T02:46:27.178176
MEAN_MOTION    = 15.04567458
ECCENTRICITY   = .0014329
INCLINATION    = 97.6507
RA_OF_ASC_NODE = 69.5659
ARG_OF_PERICENTER = 234.5390
MEAN_ANOMALY   = 125.4499

EPHEMERIS_TYPE = 0
CLASSIFICATION_TYPE = U
NORAD_CAT_ID   = 66993
ELEMENT_SET_NO = 999
REV_AT_EPOCH   = 195
BSTAR          = .3027E-3
MEAN_MOTION_DOT = .4193E-4
MEAN_MOTION_DDOT = 0

CCSDS_OMM_VERS = 2.0
CREATION_DATE  = 
ORIGINATOR     = 

OBJECT_NAME    = 2025-292B
OBJECT_ID      = 2025-292B
CENTER_NAME    = EARTH
REF_FRAME      = TEME
TIME_SYSTEM    = UTC
MEAN_ELEMENT_THEORY = SGP/SGP4

EPOCH          = 2025-12-23T02:45:54.341856
MEAN_MOTION    = 15.04613791
ECCENTRICITY   = .0014114
INCLINATION    = 97.6516
RA_OF_ASC_NODE = 69.5677
ARG_OF_PERICENTER = 234.7244
MEAN_ANOMALY   = 125.2662

EPHEMERIS_TYPE = 0
CLASSIFICATION_TYPE = U
NORAD_CAT_ID   = 66994
ELEMENT_SET_NO = 999
REV_AT_EPOCH   = 195
BSTAR          = .3656E-3
MEAN_MOTION_DOT = .5084E-4
MEAN_MOTION_DDOT = 0

CCSDS_OMM_VERS = 2.0
CREATION_DATE  = 
ORIGINATOR     = 

OBJECT_NAME    = 2025-292C
OBJECT_ID      = 2025-292C
CENTER_NAME    = EARTH
REF_FRAME      = TEME
TIME_SYSTEM    = UTC
MEAN_ELEMENT_THEORY = SGP/SGP4

EPOCH          = 2025-12-23T02:45:42.247584
MEAN_MOTION    = 15.04643416
ECCENTRICITY   = .0014422
INCLINATION    = 97.6506
RA_OF_ASC_NODE = 69.5665
ARG_OF_PERICENTER = 235.1110
MEAN_ANOMALY   = 124.8761

EPHEMERIS_TYPE = 0
CLASSIFICATION_TYPE = U
NORAD_CAT_ID   = 66995
ELEMENT_SET_NO = 999
REV_AT_EPOCH   = 195
BSTAR          = .41202E-3
MEAN_MOTION_DOT = .5743E-4
MEAN_MOTION_DDOT = 0

CCSDS_OMM_VERS = 2.0
CREATION_DATE  = 
ORIGINATOR     = 

OBJECT_NAME    = 2025-292D
OBJECT_ID      = 2025-292D
CENTER_NAME    = EARTH
REF_FRAME      = TEME
TIME_SYSTEM    = UTC
MEAN_ELEMENT_THEORY = SGP/SGP4

EPOCH          = 2025-12-23T02:45:12.784320
MEAN_MOTION    = 15.04662100
ECCENTRICITY   = .0013546
INCLINATION    = 97.6501
RA_OF_ASC_NODE = 69.5661
ARG_OF_PERICENTER = 237.6964
MEAN_ANOMALY   = 122.2951

EPHEMERIS_TYPE = 0
CLASSIFICATION_TYPE = U
NORAD_CAT_ID   = 66996
ELEMENT_SET_NO = 999
REV_AT_EPOCH   = 195
BSTAR          = .27641E-3
MEAN_MOTION_DOT = .3832E-4
MEAN_MOTION_DDOT = 0

CCSDS_OMM_VERS = 2.0
CREATION_DATE  = 
ORIGINATOR     = 

OBJECT_NAME    = 2025-292E
OBJECT_ID      = 2025-292E
CENTER_NAME    = EARTH
REF_FRAME      = TEME
TIME_SYSTEM    = UTC
MEAN_ELEMENT_THEORY = SGP/SGP4

EPOCH          = 2025-12-23T02:44:11.499072
MEAN_MOTION    = 15.04750572
ECCENTRICITY   = .0013935
INCLINATION    = 97.6522
RA_OF_ASC_NODE = 69.5703
ARG_OF_PERICENTER = 238.6473
MEAN_ANOMALY   = 121.3390

EPHEMERIS_TYPE = 0
CLASSIFICATION_TYPE = U
NORAD_CAT_ID   = 66997
ELEMENT_SET_NO = 999
REV_AT_EPOCH   = 194
BSTAR          = .31359E-3
MEAN_MOTION_DOT = .4367E-4
MEAN_MOTION_DDOT = 0

CCSDS_OMM_VERS = 2.0
CREATION_DATE  = 
ORIGINATOR     = 

OBJECT_NAME    = 2025-292F
OBJECT_ID      = 2025-292F
CENTER_NAME    = EARTH
REF_FRAME      = TEME
TIME_SYSTEM    = UTC
MEAN_ELEMENT_THEORY = SGP/SGP4

EPOCH          = 2025-12-23T02:42:11.905056
MEAN_MOTION    = 15.04926380
ECCENTRICITY   = .0015062
INCLINATION    = 97.6540
RA_OF_ASC_NODE = 69.5750
ARG_OF_PERICENTER = 239.6191
MEAN_ANOMALY   = 120.3546

EPHEMERIS_TYPE = 0
CLASSIFICATION_TYPE = U
NORAD_CAT_ID   = 66998
ELEMENT_SET_NO = 999
REV_AT_EPOCH   = 195
BSTAR          = .41179E-3
MEAN_MOTION_DOT = .5785E-4
MEAN_MOTION_DDOT = 0

CCSDS_OMM_VERS = 2.0
CREATION_DATE  = 
ORIGINATOR     = 

OBJECT_NAME    = 2025-292G
OBJECT_ID      = 2025-292G
CENTER_NAME    = EARTH
REF_FRAME      = TEME
TIME_SYSTEM    = UTC
MEAN_ELEMENT_THEORY = SGP/SGP4

EPOCH          = 2025-12-23T02:41:24.819648
MEAN_MOTION    = 15.04990026
ECCENTRICITY   = .0014593
INCLINATION    = 97.6548
RA_OF_ASC_NODE = 69.5771
ARG_OF_PERICENTER = 241.6834
MEAN_ANOMALY   = 118.2920

EPHEMERIS_TYPE = 0
CLASSIFICATION_TYPE = U
NORAD_CAT_ID   = 66999
ELEMENT_SET_NO = 999
REV_AT_EPOCH   = 195
BSTAR          = .41671E-3
MEAN_MOTION_DOT = .5864E-4
MEAN_MOTION_DDOT = 0

CCSDS_OMM_VERS = 2.0
CREATION_DATE  = 
ORIGINATOR     = 

OBJECT_NAME    = 2025-292H
OBJECT_ID      = 2025-292H
CENTER_NAME    = EARTH
REF_FRAME      = TEME
TIME_SYSTEM    = UTC
MEAN_ELEMENT_THEORY = SGP/SGP4

EPOCH          = 2025-12-23T02:41:18.050208
MEAN_MOTION    = 15.05014659
ECCENTRICITY   = .0014556
INCLINATION    = 97.6562
RA_OF_ASC_NODE = 69.5791
ARG_OF_PERICENTER = 241.4286
MEAN_ANOMALY   = 118.5475

EPHEMERIS_TYPE = 0
CLASSIFICATION_TYPE = U
NORAD_CAT_ID   = 67000
ELEMENT_SET_NO = 999
REV_AT_EPOCH   = 182
BSTAR          = .52917E-3
MEAN_MOTION_DOT = .747E-4
MEAN_MOTION_DDOT = 0

